{
    "links": {
        "self": "http://www.neowsapp.com/rest/v1/neo/3838866?api_key=iIulBulltgU6a56xZRHN4H3l9WmuAYTsLGpBGhQ2"
    },
    "id": "3838866",
    "neo_reference_id": "3838866",
    "name": "(2019 DU1)",
    "designation": "2019 DU1",
    "nasa_jpl_url": "http://ssd.jpl.nasa.gov/sbdb.cgi?sstr=3838866",
    "absolute_magnitude_h": 25.5,
    "estimated_diameter": {
        "kilometers": {
            "estimated_diameter_min": 0.0211132445,
            "estimated_diameter_max": 0.0472106499
        },
        "meters": {
            "estimated_diameter_min": 21.113244479,
            "estimated_diameter_max": 47.2106498806
        },
        "miles": {
            "estimated_diameter_min": 0.0131191578,
            "estimated_diameter_max": 0.0293353287
        },
        "feet": {
            "estimated_diameter_min": 69.2691770164,
            "estimated_diameter_max": 154.8905885541
        }
    },
    "is_potentially_hazardous_asteroid": false,
    "close_approach_data": [
        {
            "close_approach_date": "2019-02-10",
            "close_approach_date_full": "2019-Feb-10 06:33",
            "epoch_date_close_approach": 1549780380000,
            "relative_velocity": {
                "kilometers_per_second": "5.716019531",
                "kilometers_per_hour": "20577.6703114792",
                "miles_per_hour": "12786.1640888189"
            },
            "miss_distance": {
                "astronomical": "0.0594545597",
                "lunar": "23.1278237233",
                "kilometers": "8894275.492907839",
                "miles": "5526646.5172886182"
            },
            "orbiting_body": "Earth"
        }
    ],
    "orbital_data": {
        "orbit_id": "4",
        "orbit_determination_date": "2019-04-22 07:24:36",
        "first_observation_date": "2019-02-28",
        "last_observation_date": "2019-03-12",
        "data_arc_in_days": 12,
        "observations_used": 24,
        "orbit_uncertainty": "8",
        "minimum_orbit_intersection": ".0584525",
        "jupiter_tisserand_invariant": "3.949",
        "epoch_osculation": "2458548.5",
        "eccentricity": ".4274843470040582",
        "semi_major_axis": "1.80027832202938",
        "inclination": "5.608513437527524",
        "ascending_node_longitude": "160.8381563785709",
        "orbital_period": "882.2829870032265",
        "perihelion_distance": "1.030687519111089",
        "perihelion_argument": "330.4208990691582",
        "aphelion_distance": "2.569869124947671",
        "perihelion_time": "2458515.756698710017",
        "mean_anomaly": "13.36032615162597",
        "mean_motion": ".4080323493744116",
        "equinox": "J2000",
        "orbit_class": {
            "orbit_class_type": "AMO",
            "orbit_class_description": "Near-Earth asteroid orbits similar to that of 1221 Amor",
            "orbit_class_range": "1.017 AU < q (perihelion) < 1.3 AU"
        }
    },
    "is_sentry_object": false
}